CZ-6A DEB               
1 54628U 22151PE  22344.57112432  .00000343  00000+0  32689-3 0  9996
2 54628  98.8126 347.6926 0187156   9.1863 351.2638 13.79496429  2726
CZ-6A DEB               
1 54629U 22151PF  22345.27322504  .00005164  00000+0  16336-2 0  9994
2 54629  98.7027 350.2147 0129428 219.8643 139.2982 14.35889310  2910
CZ-6A DEB               
1 54630U 22151PG  22344.73687250  .00004488  00000+0  14616-2 0  9995
2 54630  98.7038 349.6334 0125682 223.0860 136.0434 14.34808899  2841
CZ-6A DEB               
1 54631U 22151PH  22345.32559957  .00004291  00000+0  14483-2 0  9998
2 54631  98.6999 350.1225 0122903 224.5472 134.5782 14.33283996  2934
CZ-6A DEB               
1 54632U 22151PJ  22345.20266148  .00004863  00000+0  16788-2 0  9998
2 54632  98.7080 350.0187 0117306 225.5805 133.5732 14.32470066  2901
CZ-6A DEB               
1 54633U 22151PK  22344.73751204  .00004562  00000+0  14930-2 0  9991
2 54633  98.7010 349.6116 0122523 222.0405 137.1329 14.34776113  2856
CZ-6A DEB               
1 54634U 22151PL  22345.45750959  .00003626  00000+0  20715-2 0  9996
2 54634  98.7901 349.7503 0046907  15.1506 345.1057 14.09651506  2872
CZ-6A DEB               
1 54635U 22151PM  22345.56097099  .00117397  00000+0  76230-2 0  9992
2 54635  98.7978 353.4131 0267818 178.6111 181.5906 14.82652950  3050
CZ-6A DEB               
1 54636U 22151PN  22344.74180272  .00093509  00000+0  26732-1 0  9997
2 54636  98.5560 348.7836 0121546 221.4909 137.7003 14.40259400  2871
CZ-6A DEB               
1 54637U 22151PP  22345.27762058  .00002248  00000+0  13995-2 0  9993
2 54637  98.8264 349.5881 0074042  19.2061 341.1872 14.04571922  2865
CZ-6A DEB               
1 54638U 22151PQ  22344.75877971  .00004786  00000+0  14700-2 0  9991
2 54638  98.7107 349.8152 0131185 218.1379 141.0468 14.37218091  3577
CZ-6A DEB               
1 54639U 22151PR  22344.76098126  .00000106  00000+0  80570-4 0  9992
2 54639  98.8006 349.2729 0029640  10.8489 349.3316 14.12414341  3936
2022-165A               
1 54640U 22165A   22345.42352343  .00208217  00000+0  39318-1 0  9991
2 54640  98.1227 283.8740 0011469 313.2743 108.3298 14.63034455   383
2022-165B               
1 54641U 22165B   22345.20640332 -.00000049  00000+0  00000+0 0  9994
2 54641  98.0282 283.5329 0033573 295.6033  64.1716 14.65344245   353
2022-167A               
1 54682U 22167A   22344.97554551  .00012564  00000+0  80508-3 0  9990
2 54682  97.5388 119.9474 0013200 259.6979 100.2750 15.08599133   262
2022-167B               
1 54683U 22167B   22345.65452264  .00031633  00000+0  36133-3 0  9998
2 54683  97.5871 120.7595 0205229 317.3105  41.2349 15.40591043   346
CAS-5A                  
1 54684U 22167C   22345.37334468  .00008353  00000+0  53505-3 0  9998
2 54684  97.5404 120.3379 0013385 259.1912 100.7813 15.08723581   316
2022-167D               
1 54685U 22167D   22345.63762238  .00007858  00000+0  49488-3 0  9992
2 54685  97.5404 120.5959 0012209 270.7644  89.2185 15.09380580   354
2022-167E               
1 54686U 22167E   22345.63762877  .00004544  00000+0  28808-3 0  9994
2 54686  97.5428 120.6010 0012109 271.9907  87.9947 15.09367185   351
2022-167F               
1 54687U 22167F   22344.97463343  .00009166  00000+0  57593-3 0  9995
2 54687  97.5394 119.9484 0012905 275.6591  84.3166 15.09409947   250
2022-167G               
1 54688U 22167G   22345.63748346 -.00000063  00000+0  00000+0 0  9994
2 54688  97.5349 120.5968 0012560 268.0472  91.9374 15.09467698   350
2022-167H               
1 54689U 22167H   22345.63742111  .00005286  00000+0  33310-3 0  9994
2 54689  97.5418 120.5990 0013303 274.6510  85.3196 15.09503409   355
2022-167J               
1 54690U 22167J   22344.97436970  .00007072  00000+0  44255-3 0  9990
2 54690  97.5393 119.9496 0013361 278.8670  81.0999 15.09637025   254
2022-167K               
1 54691U 22167K   22345.37217338  .00009069  00000+0  56719-3 0  9997
2 54691  97.5425 120.3394 0013930 274.1385  85.8254 15.09570242   318
2022-167L               
1 54692U 22167L   22345.63718335  .00004914  00000+0  30861-3 0  9994
2 54692  97.5426 120.5979 0014263 273.9712  85.9889 15.09651066   355
2022-167M               
1 54693U 22167M   22345.63882572  .00012204  00000+0  78183-3 0  9990
2 54693  97.5402 120.5944 0013170 253.9301 106.0478 15.08615606   325
2022-167N               
1 54694U 22167N   22344.97423797  .00009278  00000+0  57704-3 0  9990
2 54694  97.5375 119.9477 0014552 280.2756  79.6844 15.09758614   252
2022-167P               
1 54695U 22167P   22344.80117730  .00009781  00000+0  60804-3 0  9994
2 54695  97.5402 119.7770 0014884 279.6899 220.2795 15.09759394   228
NOAA 1 [-]              
1 04793U 70106A   22344.80484796 -.00000026  00000+0  11019-3 0  9991
2 04793 101.5343  44.0162 0031324 339.3570 132.2171 12.54009678379695
NOAA 2 (ITOS-D) [-]     
1 06235U 72082A   22344.81319772 -.00000037  00000+0  56234-4 0  9992
2 06235 101.9743 328.2725 0004180  96.2696 327.0686 12.53154742294060
NOAA 3 [-]              
1 06920U 73086A   22344.55045286 -.00000039  00000+0  51856-4 0  9992
2 06920 102.2289 326.7359 0006634 327.8558 149.7228 12.40351000222628
NOAA 4 [-]              
1 07529U 74089A   22344.56218799 -.00000036  00000+0  62968-4 0  9997
2 07529 101.9361 324.8516 0009031 125.9334 343.6821 12.53163196198603
NOAA 5 [-]              
1 09057U 76077A   22345.42485507 -.00000033  00000+0  89815-4 0  9990
2 09057 102.1267 311.6847 0009519 172.0689 357.2683 12.37777252 95864
TIROS N [-]             
1 11060U 78096A   22345.12267839  .00000160  00000+0  97874-4 0  9997
2 11060  98.6125  33.9785 0010422   0.7371 359.3818 14.18447571496898
NOAA 6 [-]              
1 11416U 79057A   22344.60884285  .00000267  00000+0  11182-3 0  9997
2 11416  98.6602 355.7226 0011423  98.3106 261.9374 14.33850589266769
NOAA 7 [-]              
1 12553U 81059A   22344.71512177  .00000039  00000+0  41815-4 0  9999
2 12553  98.9761  31.1170 0011048 339.2010  20.8713 14.17360200142768
NOAA 8 [-]              
1 13923U 83022A   22344.96451619  .00000142  00000+0  73814-4 0  9992
2 13923  98.7007 334.9501 0015951  55.6593 304.6095 14.28864002 67870
NOAA 9 [-]              
1 15427U 84123A   22345.00055560  .00000127  00000+0  87545-4 0  9996
2 15427  99.0689 320.3558 0015359  28.4238  12.9538 14.16253229961838
NOAA 10 [-]             
1 16969U 86073A   22344.99727535  .00000125  00000+0  67354-4 0  9993
2 16969  98.5861 328.0603 0012634 150.8422 278.5040 14.28252164886294
NOAA 11 [-]             
1 19531U 88089A   22344.79780543  .00000046  00000+0  44813-4 0  9993
2 19531  98.4434 324.3491 0011804  35.3470 324.8485 14.15338647765762
NOAA 12 [-]             
1 21263U 91032A   22344.81851557  .00000084  00000+0  52978-4 0  9990
2 21263  98.5226 339.7734 0013613 178.6624 181.4595 14.26034257641864
NOAA 13 [-]             
1 22739U 93050A   22344.78355756  .00000108  00000+0  80229-4 0  9994
2 22739  98.5282 315.9836 0009131 192.6760 167.4185 14.12887916511959
NOAA 14 [-]             
1 23455U 94089A   22344.79517581  .00000048  00000+0  46619-4 0  9998
2 23455  98.4356   1.8622 0009626 170.8417 189.2934 14.14223588441638
NOAA 15 [B]             
1 25338U 98030A   22345.42759419  .00000149  00000+0  80231-4 0  9999
2 25338  98.6271  12.5067 0011111 137.7517 222.4521 14.26206208278492
NOAA 16 [-]             
1 26536U 00055A   22344.81558935  .00000085  00000+0  67662-4 0  9994
2 26536  98.6135  37.4289 0010901  27.7898 332.3856 14.13364557442268
NOAA 17 [-]             
1 27453U 02032A   22345.56780224  .00000155  00000+0  84485-4 0  9991
2 27453  98.6940 288.9237 0012780 114.4530 245.7984 14.25175156 64099
NOAA 18 [B]             
1 28654U 05018A   22345.40258124  .00000220  00000+0  14204-3 0  9998
2 28654  98.9321  55.5449 0014265 187.6912 172.4043 14.12819694905058
NOAA 19 [+]             
1 33591U 09005A   22345.56583803  .00000174  00000+0  11861-3 0  9990
2 33591  99.1275  23.2528 0014575  53.2980 306.9528 14.12649526713450
SUOMI NPP [+]           
1 37849U 11061A   22345.47883672  .00000083  00000+0  60289-4 0  9990
2 37849  98.7510 281.6944 0001234  97.7546  12.6807 14.19524609576301
NOAA 20 [+]             
1 43013U 17073A   22345.49163669  .00000085  00000+0  61107-4 0  9990
2 43013  98.7349 281.3925 0000538  93.8494 266.2743 14.19534736262346
CELESTIS-02             
1 25160U 98007D   22344.73196528  .00000030  00000+0  70916-4 0  9993
2 25160 107.9846 261.7386 0062018 170.2565 247.8380 14.21669845287912
CELESTIS-03             
1 26034U 99070C   22344.78237076  .00028649  00000+0  11119-2 0  9998
2 26034  98.3015   9.0769 0006959 244.0966 115.9553 15.26046071247895
O3B FM5                 
1 39188U 13031A   22345.18046819 -.00000020  00000+0  00000+0 0  9991
2 39188   0.0658   8.5648 0002843 256.3365  95.0687  5.00115424172892
O3B FM4                 
1 39189U 13031B   22344.63673721 -.00000021  00000+0  00000+0 0  9990
2 39189   0.0412 354.0265 0002780 270.2244  95.7199  5.00115938172789
O3B FM2                 
1 39190U 13031C   22345.12802141 -.00000021  00000+0  00000+0 0  9997
2 39190   0.0379 348.3934 0002777 275.1820  96.3954  5.00115190172867
O3B PFM                 
1 39191U 13031D   22344.15479661 -.00000021  00000+0  00000+0 0  9997
2 39191   0.0570   6.7765 0002754 252.4718 100.7233  5.00115820172373
O3B FM3                 
1 40079U 14038A   22344.60938929 -.00000021  00000+0  00000+0 0  9999
2 40079   0.0480 359.1126 0004449 232.1952 128.6549  5.00116702148781
O3B FM7                 
1 40080U 14038B   22344.35557642 -.00000021  00000+0  00000+0 0  9992
2 40080   0.0474 353.6887 0002793 305.1884  61.0975  5.00115623153605
O3B FM6                 
1 40081U 14038C   22344.38197455 -.00000021  00000+0  00000+0 0  9998
2 40081   0.0470 359.3600 0002821 260.2768 100.3340  5.00115386153555
